STARLINK-31117          
1 58776U 24011M   26068.14384878  .00000728  00000+0  36721-4 0  9995
2 58776  53.1623  16.4221 0001090  73.5689 286.5432 15.30189861120183
FLOCK 4BE-27            
1 60513U 24149AX  26068.75339182  .00011439  00000+0  36576-3 0  9992
2 60513  97.3862 150.6783 0002732 305.8980  54.2008 15.32593322 86906
